1  2378U 63014Y   04001.67728510 +.00000003 +00000-0 +10000-3 0  9992
2  2378 087.3378 229.2633 0347038 199.4272 159.2980 08.66274186285236
1 02378U 63014Y   04002.13919643  .00000003  00000-0  10000-3 0  9993
2 02378 087.3355 229.2186 0346966 198.9487 159.8158 08.66274174285279
1  2378U 63014Y   04002.71658268 +.00000003 +00000-0 +10000-3 0  9990
2  2378 087.3165 229.1748 0345062 198.4960 160.3075 08.66274952285323
1  2378U 63014Y   04003.75587640 +.00000003 +00000-0 +10000-3 0  9990
2  2378 087.3020 229.0740 0340617 197.5453 161.2738 08.66272380285411
1 02378U 63014Y   04004.10232917  .00000003  00000-0  10000-3 0  9994
2 02378 087.2952 229.0362 0342657 197.0205 161.9040 08.66272470285446
1  2378U 63014Y   04004.67971176 +.00000003 +00000-0 +10000-3 0  9993
2  2378 087.2933 228.9801 0342031 196.4389 162.5059 08.66272217285494
1  2378U 63014Y   04005.71900674 +.00000003 +00000-0 +10000-3 0  9994
2  2378 087.2874 228.8768 0342456 195.3151 163.7056 08.66272764285582
1 02378U 63014Y   04006.18091812  .00000003  00000-0  10000-3 0  9991
2 02378 087.3231 228.8216 0345103 194.6888 164.3923 08.66273507285620
1  2378U 63014Y   04006.64282087 +.00000003 +00000-0 +10000-3 0  9998
2  2378 087.3226 228.7775 0345009 194.2056 164.8846 08.66273264285664
1  2378U 63014Y   04007.68211768 +.00000003 +00000-0 +10000-3 0  9991
2  2378 087.3224 228.6781 0344868 193.0909 166.0757 08.66273323285755
1  2378U 63014Y   04008.72141444 +.00000003 +00000-0 +10000-3 0  9990
2  2378 087.3214 228.5785 0344650 192.0026 167.2411 08.66273556285843
1  2378U 63014Y   04009.64523350 +.00000003 +00000-0 +10000-3 0  9992
2  2378 087.3212 228.4901 0344209 191.0376 168.2697 08.66273422285925
1  2378U 63014Y   04010.68453069 +.00000003 +00000-0 +10000-3 0  9997
2  2378 087.3206 228.3908 0343991 189.9215 169.4656 08.66273709286016
1  2378U 63014Y   04011.60835058 +.00000003 +00000-0 +10000-3 0  9992
2  2378 087.3146 228.3056 0341012 189.0394 170.4027 08.66273864286098
1  2378U 63014Y   04012.64765195 +.00000003 +00000-0 +10000-3 0  9991
2  2378 087.3136 228.2053 0340150 187.9444 171.5843 08.66273795286189
1  2378U 63014Y   04013.68694901 +.00000003 +00000-0 +10000-3 0  9992
2  2378 087.3118 228.1059 0339606 186.8545 172.7548 08.66274196286279
1  2378U 63014Y   04014.49529123 +.00000003 +00000-0 +10000-3 0  9995
2  2378 087.3123 228.0283 0339681 186.0134 173.6583 08.66274073286343
1  2378U 63014Y   04015.65006400 +.00000003 +00000-0 +10000-3 0  9992
2  2378 087.2997 227.9251 0338946 184.7631 174.9824 08.66273688286448
1 02378U 63014Y   04016.11197743  .00000003  00000-0  10000-3 0  9995
2 02378 087.2991 227.8818 0338970 184.2670 175.5248 08.66273562286487
1  2378U 63014Y   04016.57388709 +.00000003 +00000-0 +10000-3 0  9999
2  2378 087.3068 227.8336 0340505 183.7607 176.0748 08.66273800286520
1 02378U 63014Y   04017.15127081  .00000003  00000-0  10000-3 0  9998
2 02378 087.3048 227.7793 0340497 183.1564 176.7137 08.66273938286576
1  2378U 63014Y   04017.61317965 +.00000003 +00000-0 +10000-3 0  9991
2  2378 087.3068 227.7333 0340232 182.6385 177.2545 08.66273358286610
1  2378U 63014Y   04018.65247828 +.00000003 +00000-0 +10000-3 0  9996
2  2378 087.3081 227.6333 0340782 181.5495 178.4286 08.66273367286709
1  2378U 63014Y   04019.69177539 +.00000003 +00000-0 +10000-3 0  9992
2  2378 087.3088 227.5340 0340519 180.4568 179.5969 08.66273263286794
1  2378U 63014Y   04020.61559816 +.00000003 +00000-0 +10000-3 0  9998
2  2378 087.3214 227.4399 0340942 179.4470 180.6853 08.66273271286871
1  2378U 63014Y   04021.65489284 +.00000003 +00000-0 +10000-3 0  9994
2  2378 087.3203 227.3402 0340618 178.3592 181.8425 08.66273391286967
1  2378U 63014Y   04022.57871158 +.00000003 +00000-0 +10000-3 0  9991
2  2378 087.3204 227.2516 0340668 177.4086 182.8606 08.66273503287043
1  2378U 63014Y   04023.04062148 +.00000003 +00000-0 +10000-3 0  9995
2  2378 087.3196 227.2069 0340859 176.9218 183.3870 08.66273841287087
1  2378U 63014Y   04024.54182604 +.00000003 +00000-0 +10000-3 0  9991
2  2378 087.3197 227.0638 0340891 175.3532 185.0612 08.66273757287210
1  2378U 63014Y   04025.58112123 +.00000003 +00000-0 +10000-3 0  9995
2  2378 087.3214 226.9627 0341788 174.3697 186.1228 08.66273687287300
1  2378U 63014Y   04026.62041389 +.00000003 +00000-0 +10000-3 0  9996
2  2378 087.3218 226.8632 0341627 173.3010 187.2565 08.66273729287391
1  2378U 63014Y   04027.65970976 +.00000003 +00000-0 +10000-3 0  9993
2  2378 087.3219 226.7639 0341418 172.2194 188.4117 08.66273732287487
1  2378U 63014Y   04028.58352915 +.00000003 +00000-0 +10000-3 0  9993
2  2378 087.3217 226.6747 0341189 171.2458 189.4530 08.66273762287563
1 02378U 63014Y   04029.04543869  .00000003  00000-0  10000-3 0  9995
2 02378 087.3223 226.6309 0341144 170.7713 189.9619 08.66273779287609
1  2378U 63014Y   04029.62282486 +.00000003 +00000-0 +10000-3 0  9994
2  2378 087.3224 226.5755 0341074 170.1708 190.6010 08.66273742287653
1  2378U 63014Y   04030.54664394 +.00000003 +00000-0 +10000-3 0  9999
2  2378 087.3239 226.4886 0339156 169.0868 191.7390 08.66273613287734
1 02378U 63014Y   04031.12403612  .00000003  00000-0  10000-3 0  9998
2 02378 087.3244 226.4333 0339108 168.4883 192.3958 08.66273562287789
1  2378U 63014Y   04031.58594540 +.00000003 +00000-0 +10000-3 0  9999
2  2378 087.3242 226.3891 0339040 168.0125 192.9042 08.66273570287829
1  2378U 63014Y   04032.62524111 +.00000003 +00000-0 +10000-3 0  9992
2  2378 087.3250 226.2897 0338716 166.9406 194.0475 08.66273534287914
1  2378U 63014Y   04033.54905908 +.00000003 +00000-0 +10000-3 0  9991
2  2378 087.3252 226.2014 0338643 166.0001 195.0522 08.66273557287995
1  2378U 63014Y   04034.47287609 +.00000004 +00000-0 +10000-3 0  9996
2  2378 087.3249 226.1125 0338524 165.0629 196.0523 08.66273742288074
1  2378U 63014Y   04035.62765085 +.00000004 +00000-0 +10000-3 0  9993
2  2378 087.3180 226.0000 0337578 163.8781 197.3163 08.66273367288170
1  2378U 63014Y   04036.55146573 +.00000004 +00000-0 +10000-3 0  9991
2  2378 087.3175 225.9120 0337364 162.9199 198.3310 08.66273641288250
1  2378U 63014Y   04037.59075921 +.00000004 +00000-0 +10000-3 0  9994
2  2378 087.3168 225.8118 0337513 161.8616 199.4624 08.66274043288343
1 02378U 63014Y   04038.05266733  .00000004  00000-0  10000-3 0  9999
2 02378 087.3174 225.7675 0337331 161.3874 199.9675 08.66274282288386
1  2378U 63014Y   04038.63005210 +.00000004 +00000-0 +10000-3 0  9994
2  2378 087.3165 225.7124 0337292 160.7876 200.6038 08.66274305288431
1  2378U 63014Y   04039.55386857 +.00000004 +00000-0 +10000-3 0  9995
2  2378 087.3157 225.6235 0336841 159.8064 201.6445 08.66274503288513
1  2378U 63014Y   04040.59316116 +.00000004 +00000-0 +10000-3 0  9992
2  2378 087.3206 225.5271 0338796 158.8474 202.6772 08.66273953288604
1  2378U 63014Y   04041.51698018 +.00000004 +00000-0 +10000-3 0  9999
2  2378 087.3234 225.4374 0337891 157.8608 203.7258 08.66273790288689
1  2378U 63014Y   04042.55627301 +.00000004 +00000-0 +10000-3 0  9991
2  2378 087.3233 225.3383 0337352 156.7964 204.8534 08.66273802288775
1 02378U 63014Y   04043.01818078  .00000004  00000-0  10000-3 0  9996
2 02378 087.3238 225.2941 0337162 156.3192 205.3584 08.66273872288810
1  2378U 63014Y   04043.59556586 +.00000004 +00000-0 +10000-3 0  9992
2  2378 087.3243 225.2388 0337157 155.7398 205.9763 08.66273941288863
1  2378U 63014Y   04044.51938232 +.00000004 +00000-0 +10000-3 0  9997
2  2378 087.3257 225.1514 0336775 154.7891 206.9835 08.66273752288940
1  2378U 63014Y   04045.55867451 +.00000004 +00000-0 +10000-3 0  9996
2  2378 087.3264 225.0521 0336708 153.7519 208.0844 08.66273747289035
1  2378U 63014Y   04046.59796743 +.00000004 +00000-0 +10000-3 0  9996
2  2378 087.3270 224.9529 0336472 152.7015 209.1984 08.66273616289128
1  2378U 63014Y   04047.52178270 +.00000004 +00000-0 +10000-3 0  9999
2  2378 087.3274 224.8641 0336568 151.7909 210.1658 08.66273552289201
1 02378U 63014Y   04047.98368955  .00000004  00000-0  10000-3 0  9990
2 02378 087.3271 224.8195 0336716 151.3431 210.6412 08.66273672289243
1  2378U 63014Y   04048.56107325 +.00000004 +00000-0 +10000-3 0  9997
2  2378 087.3271 224.7644 0336636 150.7591 211.2580 08.66273711289294
1  2378U 63014Y   04049.48488671 +.00000004 +00000-0 +10000-3 0  9995
2  2378 087.3268 224.6745 0337015 149.8868 212.1859 08.66273884289378
1  2378U 63014Y   04050.52417750 +.00000004 +00000-0 +10000-3 0  9992
2  2378 087.3270 224.5748 0336965 148.8652 213.2704 08.66274117289467
1  2378U 63014Y   04051.44799019 +.00000004 +00000-0 +10000-3 0  9995
2  2378 087.3258 224.4860 0336693 147.9283 214.2566 08.66274207289541
1  2378U 63014Y   04052.48728025 +.00000004 +00000-0 +10000-3 0  9999
2  2378 087.3255 224.3869 0336416 146.8829 215.3597 08.66274201289633
1 02378U 63014Y   04052.94918655  .00000004  00000-0  10000-3 0  9990
2 02378 087.3254 224.3428 0336187 146.4262 215.8375 08.66273929289674
1  2378U 63014Y   04053.52657074 +.00000004 +00000-0 +10000-3 0  9990
2  2378 087.3207 224.2907 0335092 145.7811 216.5213 08.66274759289726
1  2378U 63014Y   04054.56585842 +.00000004 +00000-0 +10000-3 0  9998
2  2378 087.3220 224.1926 0334547 144.7268 217.6203 08.66274435289812
1 02378U 63014Y   04055.02776552  .00000004  00000-0  10000-3 0  9990
2 02378 087.3231 224.1491 0334296 144.2502 218.1193 08.66274118289854
1  2378U 63014Y   04055.48967341 +.00000004 +00000-0 +10000-3 0  9998
2  2378 087.3234 224.1045 0334338 143.7922 218.6058 08.66273882289895
1  2378U 63014Y   04056.52896275 +.00000004 +00000-0 +10000-3 0  9991
2  2378 087.3231 224.0054 0334712 142.8018 219.6532 08.66273763289989
1  2378U 63014Y   04057.45277596 +.00000004 +00000-0 +10000-3 0  9993
2  2378 087.3233 223.9170 0334628 141.9155 220.5913 08.66273634290068
1  2378U 63014Y   04058.49206551 +.00000004 +00000-0 +10000-3 0  9991
2  2378 087.3291 223.8158 0334806 140.8808 221.6822 08.66273819290154
1  2378U 63014Y   04059.53135341 +.00000004 +00000-0 +10000-3 0  9995
2  2378 087.3288 223.7158 0334515 139.8613 222.7499 08.66273713290243
